[{"OBJECT_NAME":"ONEWEB-0412","OBJECT_ID":"2021-132W","EPOCH":"2026-03-09T16:56:58.609824","MEAN_MOTION":13.18686027,"ECCENTRICITY":0.00015108,"INCLINATION":87.9252,"RA_OF_ASC_NODE":355.2165,"ARG_OF_PERICENTER":84.9612,"MEAN_ANOMALY":275.1692,"EPHEMERIS_TYPE":0,"CLASSIFICATION_TYPE":"U","NORAD_CAT_ID":50489,"ELEMENT_SET_NO":999,"REV_AT_EPOCH":20854,"BSTAR":-0.00020982512,"MEAN_MOTION_DOT":-7.0e-7,"MEAN_MOTION_DDOT":0},{"OBJECT_NAME":"DELTA 1 DEB","OBJECT_ID":"1973-086GT","EPOCH":"2026-03-09T04:20:17.348640","MEAN_MOTION":12.49522316,"ECCENTRICITY":0.0384811,"INCLINATION":103.8202,"RA_OF_ASC_NODE":159.2517,"ARG_OF_PERICENTER":284.6745,"MEAN_ANOMALY":130.9376,"EPHEMERIS_TYPE":0,"CLASSIFICATION_TYPE":"U","NORAD_CAT_ID":15789,"ELEMENT_SET_NO":999,"REV_AT_EPOCH":63452,"BSTAR":0.061696951,"MEAN_MOTION_DOT":0.00012161,"MEAN_MOTION_DDOT":0}]
